ONEWEB-0578             
1 56067U 23043X   24261.58842444  .00000151  00000+0  33502-3 0  9992
2 56067  87.9364  10.9275 0001813  95.2303 264.9038 13.21828817 74006
ONEWEB-0579             
1 56068U 23043Y   24261.57894425 -.00000293  00000+0 -73989-3 0  9990
2 56068  87.9356  10.9239 0001837 112.5247 247.6081 13.21828030 74018
ONEWEB-0581             
1 56069U 23043Z   24261.53578013  .00000066  00000+0  13992-3 0  9993
2 56069  87.9172 355.7861 0001272 106.4530 253.6741 13.16593258 75056
ONEWEB-0609             
1 56070U 23043AA  24261.59517128  .00000226  00000+0  56741-3 0  9998
2 56070  87.9098  26.0959 0001860 101.2517 258.8823 13.15546529 72606
ONEWEB-0613             
1 56071U 23043AB  24261.59042720  .00000018  00000+0  12652-4 0  9993
2 56071  87.9102  26.0968 0001778 110.0030 250.1292 13.15548594 72608
ONEWEB-0630             
1 56072U 23043AC  24261.58566189  .00000153  00000+0  37371-3 0  9997
2 56072  87.9094  26.0853 0001929 110.4290 249.7047 13.15545578 72591
ONEWEB-0633             
1 56074U 23043AE  24261.34640247  .00000121  00000+0  28711-3 0  9994
2 56074  87.9089  26.1301 0002114 111.1786 248.9570 13.15546208 72549
